{
  "type": "FeatureCollection",
  "features": [
    {
      "type": "Feature",
      "properties": {
        "norad_id": 66857,
        "name": "STARLINK-36083",
        "group": "last-30-days",
        "lat": 36.943753354019066,
        "lon": 161.88892167467972,
        "alt_km": 409.67716845755604,
        "timestamp": "2025-12-27T02:10:14.908365+00:00",
        "meta_object_name": "STARLINK-36083",
        "meta_object_id": "2025-281K",
        "meta_epoch": "2025-12-26T20:00:01.999008",
        "meta_mean_motion": 15.50665439,
        "meta_eccentricity": 0.0001131,
        "meta_inclination": 43.0006,
        "meta_ra_of_asc_node": 37.1969,
        "meta_arg_of_pericenter": 253.6798,
        "meta_mean_anomaly": 227.5687,
        "meta_ephemeris_type": 0,
        "meta_classification_type": "U",
        "meta_norad_cat_id": 66857,
        "meta_element_set_no": 999,
        "meta_rev_at_epoch": 365,
        "meta_bstar": -0.0024299,
        "meta_mean_motion_dot": -0.00140788,
        "meta_mean_motion_ddot": 0,
        "tle_line1": "1 66857U 25281K   25360.83335647 -.00140788  00000+0 -24299-2 0  9992",
        "tle_line2": "2 66857  43.0006  37.1969 0001131 253.6798 227.5687 15.50665439  3653"
      },
      "geometry": {
        "type": "Point",
        "coordinates": [
          161.88892167467972,
          36.943753354019066
        ]
      }
    },
    {
      "type": "Feature",
      "properties": {
        "norad_id": 66858,
        "name": "STARLINK-35118",
        "group": "last-30-days",
        "lat": 36.15252493255467,
        "lon": 164.05646029028756,
        "alt_km": 409.788321417911,
        "timestamp": "2025-12-27T02:10:14.908377+00:00",
        "meta_object_name": "STARLINK-35118",
        "meta_object_id": "2025-281L",
        "meta_epoch": "2025-12-26T20:00:01.999008",
        "meta_mean_motion": 15.50632043,
        "meta_eccentricity": 0.000127,
        "meta_inclination": 43.0007,
        "meta_ra_of_asc_node": 37.192,
        "meta_arg_of_pericenter": 245.4675,
        "meta_mean_anomaly": 237.7181,
        "meta_ephemeris_type": 0,
        "meta_classification_type": "U",
        "meta_norad_cat_id": 66858,
        "meta_element_set_no": 999,
        "meta_rev_at_epoch": 343,
        "meta_bstar": -0.0016891,
        "meta_mean_motion_dot": -0.00098383,
        "meta_mean_motion_ddot": 0,
        "tle_line1": "1 66858U 25281L   25360.83335647 -.00098383  00000+0 -16891-2 0  9995",
        "tle_line2": "2 66858  43.0007  37.1920 0001270 245.4675 237.7181 15.50632043  3432"
      },
      "geometry": {
        "type": "Point",
        "coordinates": [
          164.05646029028756,
          36.15252493255467
        ]
      }
    },
    {
      "type": "Feature",
      "properties": {
        "norad_id": 66859,
        "name": "STARLINK-35646",
        "group": "last-30-days",
        "lat": 35.30248949820308,
        "lon": 166.22863081001358,
        "alt_km": 410.1064172697652,
        "timestamp": "2025-12-27T02:10:14.908387+00:00",
        "meta_object_name": "STARLINK-35646",
        "meta_object_id": "2025-281M",
        "meta_epoch": "2025-12-26T20:00:01.999008",
        "meta_mean_motion": 15.50614649,
        "meta_eccentricity": 0.0001114,
        "meta_inclination": 43.0004,
        "meta_ra_of_asc_node": 37.1866,
        "meta_arg_of_pericenter": 266.07,
        "meta_mean_anomaly": 219.09,
        "meta_ephemeris_type": 0,
        "meta_classification_type": "U",
        "meta_norad_cat_id": 66859,
        "meta_element_set_no": 999,
        "meta_rev_at_epoch": 365,
        "meta_bstar": -0.0019576,
        "meta_mean_motion_dot": -0.00113671,
        "meta_mean_motion_ddot": 0,
        "tle_line1": "1 66859U 25281M   25360.83335647 -.00113671  00000+0 -19576-2 0  9997",
        "tle_line2": "2 66859  43.0004  37.1866 0001114 266.0700 219.0900 15.50614649  3652"
      },
      "geometry": {
        "type": "Point",
        "coordinates": [
          166.22863081001358,
          35.30248949820308
        ]
      }
    },
    {
      "type": "Feature",
      "properties": {
        "norad_id": 66860,
        "name": "STARLINK-35987",
        "group": "last-30-days",
        "lat": 30.633917444978366,
        "lon": 176.20154805913847,
        "alt_km": 411.0909184813636,
        "timestamp": "2025-12-27T02:10:14.908397+00:00",
        "meta_object_name": "STARLINK-35987",
        "meta_object_id": "2025-281N",
        "meta_epoch": "2025-12-26T20:00:01.999008",
        "meta_mean_motion": 15.50606927,
        "meta_eccentricity": 0.0001551,
        "meta_inclination": 43.0005,
        "meta_ra_of_asc_node": 37.1626,
        "meta_arg_of_pericenter": 274.3132,
        "meta_mean_anomaly": 220.4342,
        "meta_ephemeris_type": 0,
        "meta_classification_type": "U",
        "meta_norad_cat_id": 66860,
        "meta_element_set_no": 999,
        "meta_rev_at_epoch": 365,
        "meta_bstar": -0.0017227,
        "meta_mean_motion_dot": -0.00100221,
        "meta_mean_motion_ddot": 0,
        "tle_line1": "1 66860U 25281N   25360.83335647 -.00100221  00000+0 -17227-2 0  9997",
        "tle_line2": "2 66860  43.0005  37.1626 0001551 274.3132 220.4342 15.50606927  3651"
      },
      "geometry": {
        "type": "Point",
        "coordinates": [
          176.20154805913847,
          30.633917444978366
        ]
      }
    },
    {
      "type": "Feature",
      "properties": {
        "norad_id": 66861,
        "name": "STARLINK-35991",
        "group": "last-30-days",
        "lat": 33.531469656113,
        "lon": 170.3462108236733,
        "alt_km": 410.32611666019056,
        "timestamp": "2025-12-27T02:10:14.908407+00:00",
        "meta_object_name": "STARLINK-35991",
        "meta_object_id": "2025-281P",
        "meta_epoch": "2025-12-26T20:00:01.999008",
        "meta_mean_motion": 15.50608662,
        "meta_eccentricity": 0.0001,
        "meta_inclination": 43.0005,
        "meta_ra_of_asc_node": 37.1772,
        "meta_arg_of_pericenter": 270.2555,
        "meta_mean_anomaly": 218.7387,
        "meta_ephemeris_type": 0,
        "meta_classification_type": "U",
        "meta_norad_cat_id": 66861,
        "meta_element_set_no": 999,
        "meta_rev_at_epoch": 365,
        "meta_bstar": -0.0017387,
        "meta_mean_motion_dot": -0.00101138,
        "meta_mean_motion_ddot": 0,
        "tle_line1": "1 66861U 25281P   25360.83335647 -.00101138  00000+0 -17387-2 0  9993",
        "tle_line2": "2 66861  43.0005  37.1772 0001000 270.2555 218.7387 15.50608662  3654"
      },
      "geometry": {
        "type": "Point",
        "coordinates": [
          170.3462108236733,
          33.531469656113
        ]
      }
    },
    {
      "type": "Feature",
      "properties": {
        "norad_id": 66862,
        "name": "STARLINK-35974",
        "group": "last-30-days",
        "lat": 34.46139394903575,
        "lon": 168.24672176410664,
        "alt_km": 410.07296376537215,
        "timestamp": "2025-12-27T02:10:14.908431+00:00",
        "meta_object_name": "STARLINK-35974",
        "meta_object_id": "2025-281Q",
        "meta_epoch": "2025-12-26T20:00:01.999008",
        "meta_mean_motion": 15.5062415,
        "meta_eccentricity": 0.0001171,
        "meta_inclination": 43.0006,
        "meta_ra_of_asc_node": 37.1822,
        "meta_arg_of_pericenter": 255.8359,
        "meta_mean_anomaly": 231.166,
        "meta_ephemeris_type": 0,
        "meta_classification_type": "U",
        "meta_norad_cat_id": 66862,
        "meta_element_set_no": 999,
        "meta_rev_at_epoch": 355,
        "meta_bstar": -0.0012666,
        "meta_mean_motion_dot": -0.00074063,
        "meta_mean_motion_ddot": 0,
        "tle_line1": "1 66862U 25281Q   25360.83335647 -.00074063  00000+0 -12666-2 0  9995",
        "tle_line2": "2 66862  43.0006  37.1822 0001171 255.8359 231.1660 15.50624150  3554"
      },
      "geometry": {
        "type": "Point",
        "coordinates": [
          168.24672176410664,
          34.46139394903575
        ]
      }
    },
    {
      "type": "Feature",
      "properties": {
        "norad_id": 66863,
        "name": "STARLINK-36134",
        "group": "last-30-days",
        "lat": 32.59491455685711,
        "lon": 172.34248252520044,
        "alt_km": 410.55235559006087,
        "timestamp": "2025-12-27T02:10:14.908443+00:00",
        "meta_object_name": "STARLINK-36134",
        "meta_object_id": "2025-281R",
        "meta_epoch": "2025-12-26T20:00:01.999008",
        "meta_mean_motion": 15.50610411,
        "meta_eccentricity": 0.0001068,
        "meta_inclination": 43.0006,
        "meta_ra_of_asc_node": 37.1728,
        "meta_arg_of_pericenter": 277.8135,
        "meta_mean_anomaly": 213.0974,
        "meta_ephemeris_type": 0,
        "meta_classification_type": "U",
        "meta_norad_cat_id": 66863,
        "meta_element_set_no": 999,
        "meta_rev_at_epoch": 365,
        "meta_bstar": -0.0017888,
        "meta_mean_motion_dot": -0.0010401,
        "meta_mean_motion_ddot": 0,
        "tle_line1": "1 66863U 25281R   25360.83335647 -.00104010  00000+0 -17888-2 0  9993",
        "tle_line2": "2 66863  43.0006  37.1728 0001068 277.8135 213.0974 15.50610411  3654"
      },
      "geometry": {
        "type": "Point",
        "coordinates": [
          172.34248252520044,
          32.59491455685711
        ]
      }
    }
  ]
}